{
  "type": "FeatureCollection",
  "features": [
    {
      "type": "Feature",
      "properties": {
        "norad_id": 66632,
        "name": "STARLINK-35973",
        "group": "last-30-days",
        "lat": -22.609058541473185,
        "lon": 110.28994801777009,
        "alt_km": 450.13611452136956,
        "timestamp": "2025-12-25T03:55:54.952013+00:00",
        "meta_object_name": "STARLINK-35973",
        "meta_object_id": "2025-271R",
        "meta_epoch": "2025-12-23T20:53:55.230432",
        "meta_mean_motion": 15.3964384,
        "meta_eccentricity": 0.00014608,
        "meta_inclination": 53.1592,
        "meta_ra_of_asc_node": 134.5786,
        "meta_arg_of_pericenter": 54.0913,
        "meta_mean_anomaly": 306.0227,
        "meta_ephemeris_type": 0,
        "meta_classification_type": "U",
        "meta_norad_cat_id": 66632,
        "meta_element_set_no": 999,
        "meta_rev_at_epoch": 588,
        "meta_bstar": 0.00086763253,
        "meta_mean_motion_dot": 0.00034489,
        "meta_mean_motion_ddot": 0,
        "tle_line1": "1 66632U 25271R   25357.87077813  .00034489  00000+0  86763-3 0  9993",
        "tle_line2": "2 66632  53.1592 134.5786 0001460  54.0913 306.0227 15.39643840  5881"
      },
      "geometry": {
        "type": "Point",
        "coordinates": [
          110.28994801777009,
          -22.609058541473185
        ]
      }
    },
    {
      "type": "Feature",
      "properties": {
        "norad_id": 66633,
        "name": "STARLINK-35948",
        "group": "last-30-days",
        "lat": -21.458664026493107,
        "lon": 111.3456552716015,
        "alt_km": 450.41798903376366,
        "timestamp": "2025-12-25T03:55:54.952025+00:00",
        "meta_object_name": "STARLINK-35948",
        "meta_object_id": "2025-271S",
        "meta_epoch": "2025-12-24T15:35:10.142016",
        "meta_mean_motion": 15.39618587,
        "meta_eccentricity": 0.0001227,
        "meta_inclination": 53.1608,
        "meta_ra_of_asc_node": 130.909,
        "meta_arg_of_pericenter": 61.4848,
        "meta_mean_anomaly": 298.628,
        "meta_ephemeris_type": 0,
        "meta_classification_type": "U",
        "meta_norad_cat_id": 66633,
        "meta_element_set_no": 999,
        "meta_rev_at_epoch": 604,
        "meta_bstar": 0.00024095,
        "meta_mean_motion_dot": 9.25e-05,
        "meta_mean_motion_ddot": 0,
        "tle_line1": "1 66633U 25271S   25358.64942294  .00009250  00000+0  24095-3 0  9992",
        "tle_line2": "2 66633  53.1608 130.9090 0001227  61.4848 298.6280 15.39618587  6042"
      },
      "geometry": {
        "type": "Point",
        "coordinates": [
          111.3456552716015,
          -21.458664026493107
        ]
      }
    },
    {
      "type": "Feature",
      "properties": {
        "norad_id": 66634,
        "name": "STARLINK-35967",
        "group": "last-30-days",
        "lat": -1.1356925436047123,
        "lon": 127.57862162203968,
        "alt_km": 448.05828205322905,
        "timestamp": "2025-12-25T03:55:54.952036+00:00",
        "meta_object_name": "STARLINK-35967",
        "meta_object_id": "2025-271T",
        "meta_epoch": "2025-12-24T20:08:54.694752",
        "meta_mean_motion": 15.39642253,
        "meta_eccentricity": 9.61e-05,
        "meta_inclination": 53.1609,
        "meta_ra_of_asc_node": 129.9588,
        "meta_arg_of_pericenter": 81.7938,
        "meta_mean_anomaly": 278.3176,
        "meta_ephemeris_type": 0,
        "meta_classification_type": "U",
        "meta_norad_cat_id": 66634,
        "meta_element_set_no": 999,
        "meta_rev_at_epoch": 603,
        "meta_bstar": 0.0011889,
        "meta_mean_motion_dot": 0.00047487,
        "meta_mean_motion_ddot": 0,
        "tle_line1": "1 66634U 25271T   25358.83952193  .00047487  00000+0  11889-2 0  9993",
        "tle_line2": "2 66634  53.1609 129.9588 0000961  81.7938 278.3176 15.39642253  6038"
      },
      "geometry": {
        "type": "Point",
        "coordinates": [
          127.57862162203968,
          -1.1356925436047123
        ]
      }
    },
    {
      "type": "Feature",
      "properties": {
        "norad_id": 66635,
        "name": "STARLINK-35955",
        "group": "last-30-days",
        "lat": 37.866634825682326,
        "lon": 163.98754009718164,
        "alt_km": 441.63423027001227,
        "timestamp": "2025-12-25T03:55:54.952046+00:00",
        "meta_object_name": "STARLINK-35955",
        "meta_object_id": "2025-271U",
        "meta_epoch": "2025-12-24T19:55:32.375712",
        "meta_mean_motion": 15.39629943,
        "meta_eccentricity": 9.88e-05,
        "meta_inclination": 53.16,
        "meta_ra_of_asc_node": 129.9025,
        "meta_arg_of_pericenter": 68.8387,
        "meta_mean_anomaly": 291.2723,
        "meta_ephemeris_type": 0,
        "meta_classification_type": "U",
        "meta_norad_cat_id": 66635,
        "meta_element_set_no": 999,
        "meta_rev_at_epoch": 607,
        "meta_bstar": 0.00042785,
        "meta_mean_motion_dot": 0.00016757,
        "meta_mean_motion_ddot": 0,
        "tle_line1": "1 66635U 25271U   25358.83023583  .00016757  00000+0  42785-3 0  9992",
        "tle_line2": "2 66635  53.1600 129.9025 0000988  68.8387 291.2723 15.39629943  6076"
      },
      "geometry": {
        "type": "Point",
        "coordinates": [
          163.98754009718164,
          37.866634825682326
        ]
      }
    },
    {
      "type": "Feature",
      "properties": {
        "norad_id": 66636,
        "name": "STARLINK-35968",
        "group": "last-30-days",
        "lat": 19.25139716573046,
        "lon": 143.5580872159794,
        "alt_km": 444.9540850323974,
        "timestamp": "2025-12-25T03:55:54.952056+00:00",
        "meta_object_name": "STARLINK-35968",
        "meta_object_id": "2025-271V",
        "meta_epoch": "2025-12-24T20:02:13.473024",
        "meta_mean_motion": 15.39634087,
        "meta_eccentricity": 7.25e-05,
        "meta_inclination": 53.1605,
        "meta_ra_of_asc_node": 129.93,
        "meta_arg_of_pericenter": 83.7174,
        "meta_mean_anomaly": 276.3913,
        "meta_ephemeris_type": 0,
        "meta_classification_type": "U",
        "meta_norad_cat_id": 66636,
        "meta_element_set_no": 999,
        "meta_rev_at_epoch": 607,
        "meta_bstar": 0.0010176,
        "meta_mean_motion_dot": 0.0004054,
        "meta_mean_motion_ddot": 0,
        "tle_line1": "1 66636U 25271V   25358.83487816  .00040540  00000+0  10176-2 0  9991",
        "tle_line2": "2 66636  53.1605 129.9300 0000725  83.7174 276.3913 15.39634087  6077"
      },
      "geometry": {
        "type": "Point",
        "coordinates": [
          143.5580872159794,
          19.25139716573046
        ]
      }
    },
    {
      "type": "Feature",
      "properties": {
        "norad_id": 66637,
        "name": "STARLINK-35953",
        "group": "last-30-days",
        "lat": 50.91113445081828,
        "lon": -164.37855412992695,
        "alt_km": 439.6426400175533,
        "timestamp": "2025-12-25T03:55:54.952066+00:00",
        "meta_object_name": "STARLINK-35953",
        "meta_object_id": "2025-271W",
        "meta_epoch": "2025-12-24T16:41:53.954304",
        "meta_mean_motion": 15.39644073,
        "meta_eccentricity": 8.48e-05,
        "meta_inclination": 53.1618,
        "meta_ra_of_asc_node": 130.484,
        "meta_arg_of_pericenter": 76.7014,
        "meta_mean_anomaly": 283.4085,
        "meta_ephemeris_type": 0,
        "meta_classification_type": "U",
        "meta_norad_cat_id": 66637,
        "meta_element_set_no": 999,
        "meta_rev_at_epoch": 605,
        "meta_bstar": 0.00090987,
        "meta_mean_motion_dot": 0.00036196,
        "meta_mean_motion_ddot": 0,
        "tle_line1": "1 66637U 25271W   25358.69576336  .00036196  00000+0  90987-3 0  9993",
        "tle_line2": "2 66637  53.1618 130.4840 0000848  76.7014 283.4085 15.39644073  6052"
      },
      "geometry": {
        "type": "Point",
        "coordinates": [
          -164.37855412992695,
          50.91113445081828
        ]
      }
    },
    {
      "type": "Feature",
      "properties": {
        "norad_id": 66638,
        "name": "STARLINK-35972",
        "group": "last-30-days",
        "lat": 39.391558412970866,
        "lon": -89.82288670713726,
        "alt_km": 441.5746014116112,
        "timestamp": "2025-12-25T03:55:54.952076+00:00",
        "meta_object_name": "STARLINK-35972",
        "meta_object_id": "2025-271X",
        "meta_epoch": "2025-12-24T18:01:59.925792",
        "meta_mean_motion": 15.39636845,
        "meta_eccentricity": 9.36e-05,
        "meta_inclination": 53.1615,
        "meta_ra_of_asc_node": 130.117,
        "meta_arg_of_pericenter": 77.2586,
        "meta_mean_anomaly": 282.8523,
        "meta_ephemeris_type": 0,
        "meta_classification_type": "U",
        "meta_norad_cat_id": 66638,
        "meta_element_set_no": 999,
        "meta_rev_at_epoch": 606,
        "meta_bstar": 0.00050987,
        "meta_mean_motion_dot": 0.00020059,
        "meta_mean_motion_ddot": 0,
        "tle_line1": "1 66638U 25271X   25358.75138803  .00020059  00000+0  50987-3 0  9991",
        "tle_line2": "2 66638  53.1615 130.1170 0000936  77.2586 282.8523 15.39636845  6060"
      },
      "geometry": {
        "type": "Point",
        "coordinates": [
          -89.82288670713726,
          39.391558412970866
        ]
      }
    }
  ]
}